OBJECT_NAME,OBJECT_ID,EPOCH,MEAN_MOTION,ECCENTRICITY,INCLINATION,RA_OF_ASC_NODE,ARG_OF_PERICENTER,MEAN_ANOMALY,EPHEMERIS_TYPE,CLASSIFICATION_TYPE,NORAD_CAT_ID,ELEMENT_SET_NO,REV_AT_EPOCH,BSTAR,MEAN_MOTION_DOT,MEAN_MOTION_DDOT
TJS-26A,2026-144A,2026-07-23T08:21:40.191840,1.00270371,.00038724,6.9374,323.2266,350.3569,220.4517,0,U,69674,999,30,0,-.339E-5,0
STARLINK-38005,2026-145A,2026-07-23T14:00:01.000224,15.57331330,.00014704,97.2846,51.7728,85.8244,261.2748,0,U,69677,999,577,-.38464566E-1,-.2448903E-1,0
STARLINK-38009,2026-145B,2026-07-23T14:00:01.000224,15.56328182,.00017118,97.2837,51.7826,98.3725,268.8087,0,U,69678,999,577,-.40005474E-1,-.2452735E-1,0
STARLINK-37998,2026-145C,2026-07-23T14:00:01.000224,15.69205378,.00021987,97.2850,51.8322,74.9448,45.7511,0,U,69679,999,577,-.10588269E-1,-.1098714E-1,0
STARLINK-37994,2026-145D,2026-07-23T14:00:01.000224,15.57954082,.00017945,97.2842,51.7803,99.1641,264.4611,0,U,69680,999,577,-.22765233E-1,-.1515166E-1,0
STARLINK-37992,2026-145E,2026-07-23T14:00:01.000224,15.57720120,.0001867,97.2837,51.7893,75.3238,309.3224,0,U,69681,999,577,-.39055966E-1,-.2513692E-1,0
STARLINK-37997,2026-145F,2026-07-23T14:00:01.000224,15.58607167,.00019157,97.2845,51.7986,85.9053,321.8882,0,U,69682,999,577,-.37537047E-1,-.2500556E-1,0
STARLINK-37990,2026-145G,2026-07-23T14:00:01.000224,15.57504486,.00016625,97.2845,51.7813,88.9285,269.3534,0,U,69683,999,577,-.13177299E-1,-.882301E-2,0
STARLINK-37951,2026-145H,2026-07-23T01:11:21.326496,15.75103066,.00022456,97.2836,51.2809,52.9635,307.1836,0,U,69684,999,441,-.70306778E-3,-.103364E-2,0
STARLINK-37957,2026-145J,2026-07-23T14:00:01.000224,15.57382469,.00017282,97.2843,51.7957,93.6128,306.1797,0,U,69685,999,577,-.10777431E-1,-.720943E-2,0
STARLINK-37968,2026-145K,2026-07-23T14:00:01.000224,15.49128891,.00016317,97.2850,51.7542,67.0453,235.3330,0,U,69686,999,577,.11159792E-2,.60948E-3,0
STARLINK-37977,2026-145L,2026-07-23T14:00:01.000224,15.54334949,.00014687,97.2979,51.7970,74.4615,325.2699,0,U,69687,999,577,-.13932503E-1,-.833796E-2,0
STARLINK-37908,2026-145M,2026-07-23T14:00:01.000224,15.59956422,.00017666,97.2847,51.8353,74.1825,46.8873,0,U,69688,999,577,-.32774969E-1,-.2323219E-1,0
STARLINK-37979,2026-145N,2026-07-23T14:00:01.000224,15.52762180,.00012442,97.2845,51.7804,56.0436,291.5173,0,U,69689,999,577,-.41529498E-1,-.2259043E-1,0
STARLINK-37940,2026-145P,2026-07-23T14:00:01.000224,15.62954688,.0001704,97.2846,51.8422,64.8322,76.5271,0,U,69690,999,577,-.2980233E-1,-.2367219E-1,0
STARLINK-37961,2026-145Q,2026-07-23T14:00:01.000224,15.53156128,.0001348,97.2847,51.8111,83.9990,339.3463,0,U,69691,999,577,-.41574101E-1,-.2289903E-1,0
STARLINK-37787,2026-145R,2026-07-23T14:00:01.000224,15.60532013,.00021477,97.2850,51.8428,69.7407,71.5053,0,U,69692,999,577,-.20216351E-1,-.1487796E-1,0
STARLINK-37962,2026-145S,2026-07-23T14:00:01.000224,15.61783727,.00016762,97.2846,51.8572,71.1883,101.7326,0,U,69693,999,577,-.15247095E-1,-.1186019E-1,0
STARLINK-37953,2026-145T,2026-07-23T14:00:01.000224,15.51691013,.00021666,97.2849,51.8000,74.6795,329.9661,0,U,69694,999,577,-.48673763E-1,-.2560648E-1,0
STARLINK-37926,2026-145U,2026-07-23T14:00:01.000224,15.52553324,.00015041,97.2843,51.8065,74.9170,342.9301,0,U,69695,999,577,-.51551358E-1,-.2767595E-1,0
STARLINK-37959,2026-145V,2026-07-23T14:00:01.000224,15.59849095,.00017342,97.2846,51.8504,73.9292,86.0933,0,U,69696,999,577,-.9101137E-2,-.672354E-2,0
STARLINK-37976,2026-145W,2026-07-23T14:00:01.000224,15.57334133,.00018604,97.2844,51.8447,76.1829,76.9072,0,U,69697,999,577,-.3712648E-1,-.2374973E-1,0
STARLINK-37912,2026-145X,2026-07-23T14:00:01.000224,15.69877714,.00012874,97.2839,51.8895,78.1759,176.8259,0,U,69698,999,577,-.64146982E-2,-.703595E-2,0
STARLINK-37974,2026-145Y,2026-07-23T14:00:01.000224,15.60782955,.00016649,97.2842,51.8655,72.3737,119.1873,0,U,69699,999,577,-.31607475E-1,-.231404E-1,0
STARLINK-37955,2026-145Z,2026-07-23T14:00:01.000224,15.58244485,.00020499,97.2843,51.8529,86.6258,74.2058,0,U,69700,999,577,-.34141638E-1,-.2274112E-1,0
STRIX-8,2026-146A,2026-07-23T14:00:46.625472,15.04490102,.00063101,41.9902,326.6218,85.7860,274.3688,0,U,69701,999,404,.34040238E-3,.466E-4,0
STARLINK-38055,2026-147A,2026-07-23T14:00:01.000224,15.63241598,.0001753,97.2851,241.4114,93.9710,128.7790,0,U,69704,999,508,-.2884205E-1,-.2323003E-1,0
