TJS-26A                 
1 69674U 26144A   26204.34838185 -.00000339  00000+0  00000+0 0  9997
2 69674   6.9374 323.2266 0003872 350.3569 220.4517  1.00270371   303
STARLINK-38005          
1 69677U 26145A   26204.58334491 -.02448903  00000+0 -38465-1 0  9992
2 69677  97.2846  51.7728 0001470  85.8244 261.2748 15.57331330  5776
STARLINK-38009          
1 69678U 26145B   26204.58334491 -.02452735  00000+0 -40005-1 0  9994
2 69678  97.2837  51.7826 0001711  98.3725 268.8087 15.56328182  5776
STARLINK-37998          
1 69679U 26145C   26204.58334491 -.01098714  00000+0 -10588-1 0  9990
2 69679  97.2850  51.8322 0002198  74.9448  45.7511 15.69205378  5775
STARLINK-37994          
1 69680U 26145D   26204.58334491 -.01515166  00000+0 -22765-1 0  9997
2 69680  97.2842  51.7803 0001794  99.1641 264.4611 15.57954082  5777
STARLINK-37992          
1 69681U 26145E   26204.58334491 -.02513692  00000+0 -39056-1 0  9992
2 69681  97.2837  51.7893 0001867  75.3238 309.3224 15.57720120  5773
STARLINK-37997          
1 69682U 26145F   26204.58334491 -.02500556  00000+0 -37537-1 0  9990
2 69682  97.2845  51.7986 0001915  85.9053 321.8882 15.58607167  5777
STARLINK-37990          
1 69683U 26145G   26204.58334491 -.00882301  00000+0 -13177-1 0  9994
2 69683  97.2845  51.7813 0001662  88.9285 269.3534 15.57504486  5775
STARLINK-37951          
1 69684U 26145H   26204.04955239 -.00103364  00000+0 -70307-3 0  9990
2 69684  97.2836  51.2809 0002245  52.9635 307.1836 15.75103066  4419
STARLINK-37957          
1 69685U 26145J   26204.58334491 -.00720943  00000+0 -10777-1 0  9992
2 69685  97.2843  51.7957 0001728  93.6128 306.1797 15.57382469  5772
STARLINK-37968          
1 69686U 26145K   26204.58334491  .00060948  00000+0  11160-2 0  9991
2 69686  97.2850  51.7542 0001631  67.0453 235.3330 15.49128891  5774
STARLINK-37977          
1 69687U 26145L   26204.58334491 -.00833796  00000+0 -13933-1 0  9992
2 69687  97.2979  51.7970 0001468  74.4615 325.2699 15.54334949  5778
STARLINK-37908          
1 69688U 26145M   26204.58334491 -.02323219  00000+0 -32775-1 0  9994
2 69688  97.2847  51.8353 0001766  74.1825  46.8873 15.59956422  5771
STARLINK-37979          
1 69689U 26145N   26204.58334491 -.02259043  00000+0 -41529-1 0  9995
2 69689  97.2845  51.7804 0001244  56.0436 291.5173 15.52762180  5779
STARLINK-37940          
1 69690U 26145P   26204.58334491 -.02367219  00000+0 -29802-1 0  9992
2 69690  97.2846  51.8422 0001704  64.8322  76.5271 15.62954688  5778
STARLINK-37961          
1 69691U 26145Q   26204.58334491 -.02289903  00000+0 -41574-1 0  9996
2 69691  97.2847  51.8111 0001348  83.9990 339.3463 15.53156128  5778
STARLINK-37787          
1 69692U 26145R   26204.58334491 -.01487796  00000+0 -20216-1 0  9996
2 69692  97.2850  51.8428 0002147  69.7407  71.5053 15.60532013  5776
STARLINK-37962          
1 69693U 26145S   26204.58334491 -.01186019  00000+0 -15247-1 0  9999
2 69693  97.2846  51.8572 0001676  71.1883 101.7326 15.61783727  5773
STARLINK-37953          
1 69694U 26145T   26204.58334491 -.02560648  00000+0 -48674-1 0  9995
2 69694  97.2849  51.8000 0002166  74.6795 329.9661 15.51691013  5779
STARLINK-37926          
1 69695U 26145U   26204.58334491 -.02767595  00000+0 -51551-1 0  9994
2 69695  97.2843  51.8065 0001504  74.9170 342.9301 15.52553324  5779
STARLINK-37959          
1 69696U 26145V   26204.58334491 -.00672354  00000+0 -91011-2 0  9997
2 69696  97.2846  51.8504 0001734  73.9292  86.0933 15.59849095  5777
STARLINK-37976          
1 69697U 26145W   26204.58334491 -.02374973  00000+0 -37126-1 0  9992
2 69697  97.2844  51.8447 0001860  76.1829  76.9072 15.57334133  5775
STARLINK-37912          
1 69698U 26145X   26204.58334491 -.00703595  00000+0 -64147-2 0  9991
2 69698  97.2839  51.8895 0001287  78.1759 176.8259 15.69877714  5771
STARLINK-37974          
1 69699U 26145Y   26204.58334491 -.02314040  00000+0 -31607-1 0  9991
2 69699  97.2842  51.8655 0001664  72.3737 119.1873 15.60782955  5776
STARLINK-37955          
1 69700U 26145Z   26204.58334491 -.02274112  00000+0 -34142-1 0  9996
2 69700  97.2843  51.8529 0002049  86.6258  74.2058 15.58244485  5778
STRIX-8                 
1 69701U 26146A   26204.58387298  .00004660  00000+0  34040-3 0  9995
2 69701  41.9902 326.6218 0006310  85.7860 274.3688 15.04490102  4044
STARLINK-38055          
1 69704U 26147A   26204.58334491 -.02323003  00000+0 -28842-1 0  9996
2 69704  97.2851 241.4114 0001753  93.9710 128.7790 15.63241598  5083
